ORBCOMM-X               
1 21576U 91050C   25060.77618486  .00000863  00000+0  26988-3 0  9998
2 21576  98.3556 129.5162 0004452 139.1446 221.0079 14.43115369766847
ORBCOMM FM01            
1 23545U 95017A   25061.13524721  .00011892  00000+0  13001-2 0  9997
2 23545  69.9667 340.7251 0002804 196.2349 163.8715 14.88011618596924
ORBCOMM FM02            
1 23546U 95017B   25060.85655055  .00014995  00000+0  16207-2 0  9999
2 23546  69.9682   1.0638 0003291 173.6542 186.4654 14.88396129596479
ORBCOMM FM08            
1 25112U 97084A   25060.64658708  .00003871  00000+0  11345-2 0  9990
2 25112  45.0130 163.9081 0004164  70.3741 289.7559 14.45200819425988
ORBCOMM FM10            
1 25113U 97084B   25060.54293976  .00003953  00000+0  11625-2 0  9994
2 25113  45.0143 166.5998 0002703  11.6151 348.4762 14.45000606600941
ORBCOMM FM11            
1 25114U 97084C   25060.52908270  .00003607  00000+0  10697-2 0  9997
2 25114  45.0129 167.1064 0003458  18.9827 341.1152 14.44760089425906
ORBCOMM FM12            
1 25115U 97084D   25060.56232590  .00003805  00000+0  11258-2 0  9991
2 25115  45.0136 166.7091 0002527  10.6436 349.4468 14.44776262425700
ORBCOMM FM09            
1 25116U 97084E   25060.51676167  .00003646  00000+0  10826-2 0  9992
2 25116  45.0141 167.7593 0004116 359.1517   0.9326 14.44671856425909
